{"type": "FeatureCollection", "features": [ {"type": "Feature", "properties": {"norad_id": 31092, "name": "FENGYUN 1C DEB", "group": "fengyun-1c-debris", "lat": 59.04903581852234, "lon": 91.82574702870868, "alt_km": 956.4052544011083, "timestamp": "2025-12-18T17:50:15.237398+00:00", "meta": {"OBJECT_NAME": "FENGYUN 1C DEB", "OBJECT_ID": "1999-025BGN", "EPOCH": "2025-12-17T20:08:19.647456", "MEAN_MOTION": 13.46542832, "ECCENTRICITY": 0.0327337, "INCLINATION": 99.7194, "RA_OF_ASC_NODE": 107.5532, "ARG_OF_PERICENTER": 124.2222, "MEAN_ANOMALY": 239.0386, "EPHEMERIS_TYPE": 0, "CLASSIFICATION_TYPE": "U", "NORAD_CAT_ID": 31092, "ELEMENT_SET_NO": 999, "REV_AT_EPOCH": 91950, "BSTAR": 0.0011214769, "MEAN_MOTION_DOT": 8.95e-06, "MEAN_MOTION_DDOT": 0}, "tle": {"line1": "1 31092U 99025BGN 25351.83911629  .00000895  00000+0  11215-2 0  9998", "line2": "2 31092  99.7194 107.5532 0327337 124.2222 239.0386 13.46542832919502"}}, "geometry": {"type": "Point", "coordinates": [91.82574702870868, 59.04903581852234]}}, {"type": "Feature", "properties": {"norad_id": 31093, "name": "FENGYUN 1C DEB", "group": "fengyun-1c-debris", "lat": -55.786657184108996, "lon": -1.64379042176906, "alt_km": 835.1634259848533, "timestamp": "2025-12-18T17:50:15.237408+00:00", "meta": {"OBJECT_NAME": "FENGYUN 1C DEB", "OBJECT_ID": "1999-025BGP", "EPOCH": "2025-12-17T12:51:57.616992", "MEAN_MOTION": 13.8063714, "ECCENTRICITY": 0.02083029, "INCLINATION": 98.5945, "RA_OF_ASC_NODE": 190.1084, "ARG_OF_PERICENTER": 210.1547, "MEAN_ANOMALY": 148.7483, "EPHEMERIS_TYPE": 0, "CLASSIFICATION_TYPE": "U", "NORAD_CAT_ID": 31093, "ELEMENT_SET_NO": 999, "REV_AT_EPOCH": 94573, "BSTAR": 0.00036013196, "MEAN_MOTION_DOT": 4.06e-06, "MEAN_MOTION_DDOT": 0}, "tle": {"line1": "1 31093U 99025BGP 25351.53608353  .00000406  00000+0  36013-3 0  9995", "line2": "2 31093  98.5945 190.1084 0208302 210.1547 148.7483 13.80637140945732"}}, "geometry": {"type": "Point", "coordinates": [-1.64379042176906, -55.786657184108996]}}, {"type": "Feature", "properties": {"norad_id": 31094, "name": "FENGYUN 1C DEB", "group": "fengyun-1c-debris", "lat": 73.71663861763469, "lon": 72.69030037336388, "alt_km": 856.5808985583744, "timestamp": "2025-12-18T17:50:15.237418+00:00", "meta": {"OBJECT_NAME": "FENGYUN 1C DEB", "OBJECT_ID": "1999-025BGQ", "EPOCH": "2025-12-18T03:39:06.528096", "MEAN_MOTION": 14.02068724, "ECCENTRICITY": 0.01064924, "INCLINATION": 98.8567, "RA_OF_ASC_NODE": 219.855, "ARG_OF_PERICENTER": 32.0183, "MEAN_ANOMALY": 328.7395, "EPHEMERIS_TYPE": 0, "CLASSIFICATION_TYPE": "U", "NORAD_CAT_ID": 31094, "ELEMENT_SET_NO": 999, "REV_AT_EPOCH": 95695, "BSTAR": 0.0013285811, "MEAN_MOTION_DOT": 2.089e-05, "MEAN_MOTION_DDOT": 0}, "tle": {"line1": "1 31094U 99025BGQ 25352.15215889  .00002089  00000+0  13286-2 0  9998", "line2": "2 31094  98.8567 219.8550 0106492  32.0183 328.7395 14.02068724956956"}}, "geometry": {"type": "Point", "coordinates": [72.69030037336388, 73.71663861763469]}}, {"type": "Feature", "properties": {"norad_id": 31095, "name": "FENGYUN 1C DEB", "group": "fengyun-1c-debris", "lat": -58.67913154882813, "lon": 148.3314938518794, "alt_km": 1435.5807001464182, "timestamp": "2025-12-18T17:50:15.237428+00:00", "meta": {"OBJECT_NAME": "FENGYUN 1C DEB", "OBJECT_ID": "1999-025BGR", "EPOCH": "2025-12-17T03:34:34.916736", "MEAN_MOTION": 13.06670581, "ECCENTRICITY": 0.05000721, "INCLINATION": 98.5625, "RA_OF_ASC_NODE": 132.7204, "ARG_OF_PERICENTER": 181.3173, "MEAN_ANOMALY": 178.6655, "EPHEMERIS_TYPE": 0, "CLASSIFICATION_TYPE": "U", "NORAD_CAT_ID": 31095, "ELEMENT_SET_NO": 999, "REV_AT_EPOCH": 89505, "BSTAR": 0.0005656824, "MEAN_MOTION_DOT": 3.13e-06, "MEAN_MOTION_DDOT": 0}, "tle": {"line1": "1 31095U 99025BGR 25351.14901524  .00000313  00000+0  56568-3 0  9994", "line2": "2 31095  98.5625 132.7204 0500072 181.3173 178.6655 13.06670581895054"}}, "geometry": {"type": "Point", "coordinates": [148.3314938518794, -58.67913154882813]}}, {"type": "Feature", "properties": {"norad_id": 31097, "name": "FENGYUN 1C DEB", "group": "fengyun-1c-debris", "lat": 35.37664398602138, "lon": 109.43800177787881, "alt_km": 741.4334561672313, "timestamp": "2025-12-18T17:50:15.237448+00:00", "meta": {"OBJECT_NAME": "FENGYUN 1C DEB", "OBJECT_ID": "1999-025BGT", "EPOCH": "2025-12-17T14:03:42.624000", "MEAN_MOTION": 14.47080395, "ECCENTRICITY": 0.00154261, "INCLINATION": 98.8591, "RA_OF_ASC_NODE": 114.5858, "ARG_OF_PERICENTER": 256.8277, "MEAN_ANOMALY": 233.4008, "EPHEMERIS_TYPE": 0, "CLASSIFICATION_TYPE": "U", "NORAD_CAT_ID": 31097, "ELEMENT_SET_NO": 999, "REV_AT_EPOCH": 97108, "BSTAR": 0.0020918687, "MEAN_MOTION_DOT": 7.591e-05, "MEAN_MOTION_DDOT": 0}, "tle": {"line1": "1 31097U 99025BGT 25351.58591000  .00007591  00000+0  20919-2 0  9993", "line2": "2 31097  98.8591 114.5858 0015426 256.8277 233.4008 14.47080395971085"}}, "geometry": {"type": "Point", "coordinates": [109.43800177787881, 35.37664398602138]}}, {"type": "Feature", "properties": {"norad_id": 31098, "name": "FENGYUN 1C DEB", "group": "fengyun-1c-debris", "lat": 1.862343926328928, "lon": 110.73473170144983, "alt_km": 729.7760508439878, "timestamp": "2025-12-18T17:50:15.237460+00:00", "meta": {"OBJECT_NAME": "FENGYUN 1C DEB", "OBJECT_ID": "1999-025BGU", "EPOCH": "2025-12-17T18:40:09.833376", "MEAN_MOTION": 14.51639804, "ECCENTRICITY": 0.00151145, "INCLINATION": 98.8697, "RA_OF_ASC_NODE": 110.0074, "ARG_OF_PERICENTER": 235.3042, "MEAN_ANOMALY": 124.6728, "EPHEMERIS_TYPE": 0, "CLASSIFICATION_TYPE": "U", "NORAD_CAT_ID": 31098, "ELEMENT_SET_NO": 999, "REV_AT_EPOCH": 97030, "BSTAR": 0.0023349237, "MEAN_MOTION_DOT": 9.336e-05, "MEAN_MOTION_DDOT": 0}, "tle": {"line1": "1 31098U 99025BGU 25351.77789159  .00009336  00000+0  23349-2 0  9998", "line2": "2 31098  98.8697 110.0074 0015114 235.3042 124.6728 14.51639804970304"}}, "geometry": {"type": "Point", "coordinates": [110.73473170144983, 1.862343926328928]}}, {"type": "Feature", "properties": {"norad_id": 31099, "name": "FENGYUN 1C DEB", "group": "fengyun-1c-debris", "lat": 37.3434841180149, "lon": -121.53316706132347, "alt_km": 827.0515138129886, "timestamp": "2025-12-18T17:50:15.237471+00:00", "meta": {"OBJECT_NAME": "FENGYUN 1C DEB", "OBJECT_ID": "1999-025BGV", "EPOCH": "2025-12-18T04:55:12.394848", "MEAN_MOTION": 14.27930025, "ECCENTRICITY": 0.00625317, "INCLINATION": 98.9382, "RA_OF_ASC_NODE": 244.813, "ARG_OF_PERICENTER": 265.339, "MEAN_ANOMALY": 246.892, "EPHEMERIS_TYPE": 0, "CLASSIFICATION_TYPE": "U", "NORAD_CAT_ID": 31099, "ELEMENT_SET_NO": 999, "REV_AT_EPOCH": 97549, "BSTAR": 0.00024317483, "MEAN_MOTION_DOT": 5.68e-06, "MEAN_MOTION_DDOT": 0}, "tle": {"line1": "1 31099U 99025BGV 25352.20500457  .00000568  00000+0  24317-3 0  9995", "line2": "2 31099  98.9382 244.8130 0062531 265.3390 246.8920 14.27930025975498"}}, "geometry": {"type": "Point", "coordinates": [-121.53316706132347, 37.3434841180149]}}, {"type": "Feature", "properties": {"norad_id": 31146, "name": "FENGYUN 1C DEB", "group": "fengyun-1c-debris", "lat": -72.41031362055679, "lon": 73.56906767200043, "alt_km": 843.5765143018962, "timestamp": "2025-12-18T17:50:15.237481+00:00", "meta": {"OBJECT_NAME": "FENGYUN 1C DEB", "OBJECT_ID": "1999-025BGY", "EPOCH": "2025-12-17T01:58:43.283424", "MEAN_MOTION": 14.27713578, "ECCENTRICITY": 0.02127861, "INCLINATION": 99.0421, "RA_OF_ASC_NODE": 282.0022, "ARG_OF_PERICENTER": 154.4434, "MEAN_ANOMALY": 206.7451, "EPHEMERIS_TYPE": 0, "CLASSIFICATION_TYPE": "U", "NORAD_CAT_ID": 31146, "ELEMENT_SET_NO": 999, "REV_AT_EPOCH": 96827, "BSTAR": 0.00027932804, "MEAN_MOTION_DOT": 8.25e-06, "MEAN_MOTION_DDOT": 0}, "tle": {"line1": "1 31146U 99025BGY 25351.08244541  .00000825  00000+0  27933-3 0  9995", "line2": "2 31146  99.0421 282.0022 0212786 154.4434 206.7451 14.27713578968271"}}, "geometry": {"type": "Point", "coordinates": [73.56906767200043, -72.41031362055679]}}, {"type": "Feature", "properties": {"norad_id": 31148, "name": "FENGYUN 1C DEB", "group": "fengyun-1c-debris", "lat": 38.59631661983565, "lon": -128.60047109010574, "alt_km": 647.4732323172002, "timestamp": "2025-12-18T17:50:15.237492+00:00", "meta": {"OBJECT_NAME": "FENGYUN 1C DEB", "OBJECT_ID": "1999-025BHA", "EPOCH": "2025-12-17T03:23:48.030432", "MEAN_MOTION": 14.43384812, "ECCENTRICITY": 0.01367919, "INCLINATION": 98.8663, "RA_OF_ASC_NODE": 236.8896, "ARG_OF_PERICENTER": 37.7158, "MEAN_ANOMALY": 323.3525, "EPHEMERIS_TYPE": 0, "CLASSIFICATION_TYPE": "U", "NORAD_CAT_ID": 31148, "ELEMENT_SET_NO": 999, "REV_AT_EPOCH": 97594, "BSTAR": 0.00067377616, "MEAN_MOTION_DOT": 2.495e-05, "MEAN_MOTION_DDOT": 0}, "tle": {"line1": "1 31148U 99025BHA 25351.14152813  .00002495  00000+0  67378-3 0  9996", "line2": "2 31148  98.8663 236.8896 0136791  37.7158 323.3525 14.43384812975944"}}, "geometry": {"type": "Point", "coordinates": [-128.60047109010574, 38.59631661983565]}}, {"type": "Feature", "properties": {"norad_id": 31150, "name": "FENGYUN 1C DEB", "group": "fengyun-1c-debris", "lat": -29.725540126827084, "lon": 176.21034581563168, "alt_km": 851.4999520963456, "timestamp": "2025-12-18T17:50:15.237502+00:00", "meta": {"OBJECT_NAME": "FENGYUN 1C DEB", "OBJECT_ID": "1999-025BHC", "EPOCH": "2025-12-17T23:59:25.368288", "MEAN_MOTION": 14.12736469, "ECCENTRICITY": 0.00155298, "INCLINATION": 98.6855, "RA_OF_ASC_NODE": 0.4964, "ARG_OF_PERICENTER": 145.0498, "MEAN_ANOMALY": 244.898, "EPHEMERIS_TYPE": 0, "CLASSIFICATION_TYPE": "U", "NORAD_CAT_ID": 31150, "ELEMENT_SET_NO": 999, "REV_AT_EPOCH": 96371, "BSTAR": 0.00013187463, "MEAN_MOTION_DOT": 2.02e-06, "MEAN_MOTION_DDOT": 0}, "tle": {"line1": "1 31150U 99025BHC 25351.99959917  .00000202  00000+0  13187-3 0  9995", "line2": "2 31150  98.6855   0.4964 0015529 145.0498 244.8980 14.12736469963713"}}, "geometry": {"type": "Point", "coordinates": [176.21034581563168, -29.725540126827084]}}]}